[
    {
        "Altitude(m)": 558927.9706722719,
        "Argument of Periapsis(deg)": 0.013245982221427002,
        "Eccentricity": 0.0,
        "Inclination(deg)": 53.0,
        "Latitude(deg)": -20.103958501764684,
        "Longitude(deg)": -132.4976123633222,
        "Mean Anomaly(deg)": -25.2713142648448,
        "RAAN(deg)": 344.9802867370561,
        "Satellite Name": "Starlink Shell 1 1537",
        "Satellite Number": 1537,
        "Semi-Major Axis(m)": 6931778.249405717,
        "Time(s)": 380
    },
    {
        "Altitude(m)": 558770.9382523897,
        "Argument of Periapsis(deg)": 0.013594560700938237,
        "Eccentricity": 0.0,
        "Inclination(deg)": 53.0,
        "Latitude(deg)": -19.619907928255554,
        "Longitude(deg)": -132.11389275526855,
        "Mean Anomaly(deg)": -24.644483061288003,
        "RAAN(deg)": 344.97976796697856,
        "Satellite Name": "Starlink Shell 1 1537",
        "Satellite Number": 1537,
        "Semi-Major Axis(m)": 6931778.249405717,
        "Time(s)": 390
    },
    {
        "Altitude(m)": 558615.4135685319,
        "Argument of Periapsis(deg)": 0.013943139180449475,
        "Eccentricity": 0.0,
        "Inclination(deg)": 53.0,
        "Latitude(deg)": -19.1348199663309,
        "Longitude(deg)": -131.7326982641418,
        "Mean Anomaly(deg)": -24.01765185773136,
        "RAAN(deg)": 344.9792491969011,
        "Satellite Name": "Starlink Shell 1 1537",
        "Satellite Number": 1537,
        "Semi-Major Axis(m)": 6931778.249405717,
        "Time(s)": 400
    },
    {
        "Altitude(m)": 558461.4500919488,
        "Argument of Periapsis(deg)": 0.014291717659960712,
        "Eccentricity": 0.0,
        "Inclination(deg)": 53.0,
        "Latitude(deg)": -18.648727283485094,
        "Longitude(deg)": -131.35395154833859,
        "Mean Anomaly(deg)": -23.39082065417461,
        "RAAN(deg)": 344.97873042682363,
        "Satellite Name": "Starlink Shell 1 1537",
        "Satellite Number": 1537,
        "Semi-Major Axis(m)": 6931778.249405717,
        "Time(s)": 410
    },
    {
        "Altitude(m)": 558309.1004490773,
        "Argument of Periapsis(deg)": 0.014640296139471948,
        "Eccentricity": 0.0,
        "Inclination(deg)": 53.0,
        "Latitude(deg)": -18.16166199477981,
        "Longitude(deg)": -130.97757676324736,
        "Mean Anomaly(deg)": -22.763989450617863,
        "RAAN(deg)": 344.97821165674617,
        "Satellite Name": "Starlink Shell 1 1537",
        "Satellite Number": 1537,
        "Semi-Major Axis(m)": 6931778.249405717,
        "Time(s)": 420
    },
    {
        "Altitude(m)": 558158.4163981673,
        "Argument of Periapsis(deg)": 0.014988874618983185,
        "Eccentricity": 0.0,
        "Inclination(deg)": 53.0,
        "Latitude(deg)": -17.673655682825142,
        "Longitude(deg)": -130.60349903167707,
        "Mean Anomaly(deg)": -22.13715824706117,
        "RAAN(deg)": 344.97769288666865,
        "Satellite Name": "Starlink Shell 1 1537",
        "Satellite Number": 1537,
        "Semi-Major Axis(m)": 6931778.249405717,
        "Time(s)": 430
    },
    {
        "Altitude(m)": 558009.4488063506,
        "Argument of Periapsis(deg)": 0.015337453098494424,
        "Eccentricity": 0.0,
        "Inclination(deg)": 53.0,
        "Latitude(deg)": -17.184739417321452,
        "Longitude(deg)": -130.2316439139693,
        "Mean Anomaly(deg)": -21.510327043504525,
        "RAAN(deg)": 344.97717411659124,
        "Satellite Name": "Starlink Shell 1 1537",
        "Satellite Number": 1537,
        "Semi-Major Axis(m)": 6931778.249405717,
        "Time(s)": 440
    },
    {
        "Altitude(m)": 557862.2476271281,
        "Argument of Periapsis(deg)": 0.01568603157800566,
        "Eccentricity": 0.0,
        "Inclination(deg)": 53.0,
        "Latitude(deg)": -16.69494377417151,
        "Longitude(deg)": -129.86193839071586,
        "Mean Anomaly(deg)": -20.883495839947777,
        "RAAN(deg)": 344.9766553465138,
        "Satellite Name": "Starlink Shell 1 1537",
        "Satellite Number": 1537,
        "Semi-Major Axis(m)": 6931778.249405717,
        "Time(s)": 450
    },
    {
        "Altitude(m)": 557716.8618783209,
        "Argument of Periapsis(deg)": 0.0160346100575169,
        "Eccentricity": 0.0,
        "Inclination(deg)": 53.0,
        "Latitude(deg)": -16.204298854178216,
        "Longitude(deg)": -129.49431033238,
        "Mean Anomaly(deg)": -20.25666463639098,
        "RAAN(deg)": 344.97613657643626,
        "Satellite Name": "Starlink Shell 1 1537",
        "Satellite Number": 1537,
        "Semi-Major Axis(m)": 6931778.249405717,
        "Time(s)": 460
    },
    {
        "Altitude(m)": 557573.3396204512,
        "Argument of Periapsis(deg)": 0.016383188537028134,
        "Eccentricity": 0.0,
        "Inclination(deg)": 53.0,
        "Latitude(deg)": -15.71283430133641,
        "Longitude(deg)": -129.12868796873533,
        "Mean Anomaly(deg)": -19.629833432834385,
        "RAAN(deg)": 344.9756178063588,
        "Satellite Name": "Starlink Shell 1 1537",
        "Satellite Number": 1537,
        "Semi-Major Axis(m)": 6931778.249405717,
        "Time(s)": 470
    },
    {
        "Altitude(m)": 557431.727935602,
        "Argument of Periapsis(deg)": 0.01673176701653937,
        "Eccentricity": 0.0,
        "Inclination(deg)": 53.0,
        "Latitude(deg)": -15.220579320729282,
        "Longitude(deg)": -128.7650008710338,
        "Mean Anomaly(deg)": -19.00300222927769,
        "RAAN(deg)": 344.97509903628134,
        "Satellite Name": "Starlink Shell 1 1537",
        "Satellite Number": 1537,
        "Semi-Major Axis(m)": 6931778.249405717,
        "Time(s)": 480
    },
    {
        "Altitude(m)": 557292.0729067628,
        "Argument of Periapsis(deg)": 0.017080345496050607,
        "Eccentricity": 0.0,
        "Inclination(deg)": 53.0,
        "Latitude(deg)": -14.727562696045878,
        "Longitude(deg)": -128.40317942118844,
        "Mean Anomaly(deg)": -18.376171025720893,
        "RAAN(deg)": 344.9745802662039,
        "Satellite Name": "Starlink Shell 1 1537",
        "Satellite Number": 1537,
        "Semi-Major Axis(m)": 6931778.249405717,
        "Time(s)": 490
    },
    {
        "Altitude(m)": 557154.419597644,
        "Argument of Periapsis(deg)": 0.017428923975561842,
        "Eccentricity": 0.0,
        "Inclination(deg)": 53.0,
        "Latitude(deg)": -14.23381280672879,
        "Longitude(deg)": -128.04315428087423,
        "Mean Anomaly(deg)": -17.749339822164195,
        "RAAN(deg)": 344.9740614961264,
        "Satellite Name": "Starlink Shell 1 1537",
        "Satellite Number": 1537,
        "Semi-Major Axis(m)": 6931778.249405717,
        "Time(s)": 500
    },
    {
        "Altitude(m)": 557018.8120329953,
        "Argument of Periapsis(deg)": 0.01777750245507308,
        "Eccentricity": 0.0,
        "Inclination(deg)": 53.0,
        "Latitude(deg)": -13.739357644762327,
        "Longitude(deg)": -127.6848573734475,
        "Mean Anomaly(deg)": -17.1225086186075,
        "RAAN(deg)": 344.9735427260489,
        "Satellite Name": "Starlink Shell 1 1537",
        "Satellite Number": 1537,
        "Semi-Major Axis(m)": 6931778.249405717,
        "Time(s)": 510
    },
    {
        "Altitude(m)": 556885.2931794502,
        "Argument of Periapsis(deg)": 0.018126080934584315,
        "Eccentricity": 0.0,
        "Inclination(deg)": 53.0,
        "Latitude(deg)": -13.244224831117899,
        "Longitude(deg)": -127.32822135295935,
        "Mean Anomaly(deg)": -16.495677415050753,
        "RAAN(deg)": 344.9730239559714,
        "Satellite Name": "Starlink Shell 1 1537",
        "Satellite Number": 1537,
        "Semi-Major Axis(m)": 6931778.249405717,
        "Time(s)": 520
    },
    {
        "Altitude(m)": 556753.904926878,
        "Argument of Periapsis(deg)": 0.018474659414095554,
        "Eccentricity": 0.0,
        "Inclination(deg)": 53.0,
        "Latitude(deg)": -12.748441631867118,
        "Longitude(deg)": -126.97317907315926,
        "Mean Anomaly(deg)": -15.86884621149401,
        "RAAN(deg)": 344.97250518589397,
        "Satellite Name": "Starlink Shell 1 1537",
        "Satellite Number": 1537,
        "Semi-Major Axis(m)": 6931778.249405717,
        "Time(s)": 530
    },
    {
        "Altitude(m)": 556624.6880702442,
        "Argument of Periapsis(deg)": 0.018823237893606792,
        "Eccentricity": 0.0,
        "Inclination(deg)": 53.0,
        "Latitude(deg)": -12.2520349739719,
        "Longitude(deg)": -126.61966456937927,
        "Mean Anomaly(deg)": -15.242015007937313,
        "RAAN(deg)": 344.9719864158165,
        "Satellite Name": "Starlink Shell 1 1537",
        "Satellite Number": 1537,
        "Semi-Major Axis(m)": 6931778.249405717,
        "Time(s)": 540
    },
    {
        "Altitude(m)": 556497.6822920552,
        "Argument of Periapsis(deg)": 0.019171816373118027,
        "Eccentricity": 0.0,
        "Inclination(deg)": 53.0,
        "Latitude(deg)": -11.755031460769008,
        "Longitude(deg)": -126.26761252756774,
        "Mean Anomaly(deg)": -14.615183804380669,
        "RAAN(deg)": 344.971467645739,
        "Satellite Name": "Starlink Shell 1 1537",
        "Satellite Number": 1537,
        "Semi-Major Axis(m)": 6931778.249405717,
        "Time(s)": 550
    },
    {
        "Altitude(m)": 556372.926145316,
        "Argument of Periapsis(deg)": 0.019520394852629266,
        "Eccentricity": 0.0,
        "Inclination(deg)": 53.0,
        "Latitude(deg)": -11.257457387158906,
        "Longitude(deg)": -125.91695775335985,
        "Mean Anomaly(deg)": -13.98835260082382,
        "RAAN(deg)": 344.9709488756616,
        "Satellite Name": "Starlink Shell 1 1537",
        "Satellite Number": 1537,
        "Semi-Major Axis(m)": 6931778.249405717,
        "Time(s)": 560
    }
]